{
  "type": "FeatureCollection",
  "features": [
    {
      "type": "Feature",
      "properties": {
        "norad_id": 40696,
        "name": "FENGYUN 1C DEB",
        "group": "fengyun-1c-debris",
        "lat": 56.303681859525845,
        "lon": 173.17222883460835,
        "alt_km": 945.1707355938825,
        "timestamp": "2025-12-18T21:31:51.291808+00:00",
        "meta_object_name": "FENGYUN 1C DEB",
        "meta_object_id": "1999-025EXC",
        "meta_epoch": "2025-12-17T05:24:20.221920",
        "meta_mean_motion": 13.96744083,
        "meta_eccentricity": 0.00795529,
        "meta_inclination": 98.9563,
        "meta_ra_of_asc_node": 337.8647,
        "meta_arg_of_pericenter": 345.1128,
        "meta_mean_anomaly": 14.7694,
        "meta_ephemeris_type": 0,
        "meta_classification_type": "U",
        "meta_norad_cat_id": 40696,
        "meta_element_set_no": 999,
        "meta_rev_at_epoch": 55742,
        "meta_bstar": 8.1397831e-05,
        "meta_mean_motion_dot": 7.3e-07,
        "meta_mean_motion_ddot": 0,
        "tle_line1": "1 40696U 99025EXC 25351.22523405  .00000073  00000+0  81398-4 0  9991",
        "tle_line2": "2 40696  98.9563 337.8647 0079552 345.1128  14.7694 13.96744083557426"
      },
      "geometry": {
        "type": "Point",
        "coordinates": [
          173.17222883460835,
          56.303681859525845
        ]
      }
    },
    {
      "type": "Feature",
      "properties": {
        "norad_id": 41003,
        "name": "FENGYUN 1C DEB",
        "group": "fengyun-1c-debris",
        "lat": -80.39515037317571,
        "lon": 23.73410317202938,
        "alt_km": 610.0883357730163,
        "timestamp": "2025-12-18T21:31:51.291818+00:00",
        "meta_object_name": "FENGYUN 1C DEB",
        "meta_object_id": "1999-025EXH",
        "meta_epoch": "2025-12-18T00:45:28.754784",
        "meta_mean_motion": 14.7305583,
        "meta_eccentricity": 0.00693605,
        "meta_inclination": 98.9664,
        "meta_ra_of_asc_node": 271.6889,
        "meta_arg_of_pericenter": 275.6139,
        "meta_mean_anomaly": 83.7159,
        "meta_ephemeris_type": 0,
        "meta_classification_type": "U",
        "meta_norad_cat_id": 41003,
        "meta_element_set_no": 999,
        "meta_rev_at_epoch": 52498,
        "meta_bstar": 0.0028315374,
        "meta_mean_motion_dot": 0.00018902,
        "meta_mean_motion_ddot": 0,
        "tle_line1": "1 41003U 99025EXH 25352.03158281  .00018902  00000+0  28315-2 0  9998",
        "tle_line2": "2 41003  98.9664 271.6889 0069360 275.6139  83.7159 14.73055830524987"
      },
      "geometry": {
        "type": "Point",
        "coordinates": [
          23.73410317202938,
          -80.39515037317571
        ]
      }
    },
    {
      "type": "Feature",
      "properties": {
        "norad_id": 41006,
        "name": "FENGYUN 1C DEB",
        "group": "fengyun-1c-debris",
        "lat": 6.966748070338212,
        "lon": -135.90428112733034,
        "alt_km": 810.8712965402074,
        "timestamp": "2025-12-18T21:31:51.291829+00:00",
        "meta_object_name": "FENGYUN 1C DEB",
        "meta_object_id": "1999-025EXL",
        "meta_epoch": "2025-12-12T21:38:45.983904",
        "meta_mean_motion": 13.8536183,
        "meta_eccentricity": 0.01900708,
        "meta_inclination": 102.3668,
        "meta_ra_of_asc_node": 217.748,
        "meta_arg_of_pericenter": 8.2798,
        "meta_mean_anomaly": 352.1409,
        "meta_ephemeris_type": 0,
        "meta_classification_type": "U",
        "meta_norad_cat_id": 41006,
        "meta_element_set_no": 999,
        "meta_rev_at_epoch": 57491,
        "meta_bstar": 0.0039238836,
        "meta_mean_motion_dot": 5.076e-05,
        "meta_mean_motion_ddot": 0,
        "tle_line1": "1 41006U 99025EXL 25346.90192111  .00005076  00000+0  39239-2 0  9995",
        "tle_line2": "2 41006 102.3668 217.7480 0190070   8.2798 352.1409 13.85361830574917"
      },
      "geometry": {
        "type": "Point",
        "coordinates": [
          -135.90428112733034,
          6.966748070338212
        ]
      }
    },
    {
      "type": "Feature",
      "properties": {
        "norad_id": 41007,
        "name": "FENGYUN 1C DEB",
        "group": "fengyun-1c-debris",
        "lat": -30.031775021525846,
        "lon": -165.77394073755812,
        "alt_km": 1075.378734947366,
        "timestamp": "2025-12-18T21:31:51.291839+00:00",
        "meta_object_name": "FENGYUN 1C DEB",
        "meta_object_id": "1999-025EXM",
        "meta_epoch": "2025-11-29T06:55:22.773792",
        "meta_mean_motion": 13.85678237,
        "meta_eccentricity": 0.01723955,
        "meta_inclination": 99.9731,
        "meta_ra_of_asc_node": 359.205,
        "meta_arg_of_pericenter": 79.2855,
        "meta_mean_anomaly": 282.7657,
        "meta_ephemeris_type": 0,
        "meta_classification_type": "U",
        "meta_norad_cat_id": 41007,
        "meta_element_set_no": 999,
        "meta_rev_at_epoch": 57212,
        "meta_bstar": 0.0017167305,
        "meta_mean_motion_dot": 2.158e-05,
        "meta_mean_motion_ddot": 0,
        "tle_line1": "1 41007U 99025EXM 25333.28845803  .00002158  00000+0  17167-2 0  9990",
        "tle_line2": "2 41007  99.9731 359.2050 0172395  79.2855 282.7657 13.85678237572123"
      },
      "geometry": {
        "type": "Point",
        "coordinates": [
          -165.77394073755812,
          -30.031775021525846
        ]
      }
    },
    {
      "type": "Feature",
      "properties": {
        "norad_id": 41011,
        "name": "FENGYUN 1C DEB",
        "group": "fengyun-1c-debris",
        "lat": 1.1035567364179075,
        "lon": -141.44024698879852,
        "alt_km": 959.9124072200075,
        "timestamp": "2025-12-18T21:31:51.291849+00:00",
        "meta_object_name": "FENGYUN 1C DEB",
        "meta_object_id": "1999-025EXR",
        "meta_epoch": "2025-12-16T02:07:38.398368",
        "meta_mean_motion": 14.42925727,
        "meta_eccentricity": 0.03098164,
        "meta_inclination": 99.1685,
        "meta_ra_of_asc_node": 35.357,
        "meta_arg_of_pericenter": 348.268,
        "meta_mean_anomaly": 11.1401,
        "meta_ephemeris_type": 0,
        "meta_classification_type": "U",
        "meta_norad_cat_id": 41011,
        "meta_element_set_no": 999,
        "meta_rev_at_epoch": 57205,
        "meta_bstar": 0.00040845328,
        "meta_mean_motion_dot": 2.378e-05,
        "meta_mean_motion_ddot": 0,
        "tle_line1": "1 41011U 99025EXR 25350.08863887  .00002378  00000+0  40845-3 0  9998",
        "tle_line2": "2 41011  99.1685  35.3570 0309816 348.2680  11.1401 14.42925727572058"
      },
      "geometry": {
        "type": "Point",
        "coordinates": [
          -141.44024698879852,
          1.1035567364179075
        ]
      }
    },
    {
      "type": "Feature",
      "properties": {
        "norad_id": 41018,
        "name": "FENGYUN 1C DEB",
        "group": "fengyun-1c-debris",
        "lat": -58.62467218274728,
        "lon": -45.9945862731392,
        "alt_km": 1287.3947058292615,
        "timestamp": "2025-12-18T21:31:51.291860+00:00",
        "meta_object_name": "FENGYUN 1C DEB",
        "meta_object_id": "1999-025EXY",
        "meta_epoch": "2025-12-15T01:30:35.121600",
        "meta_mean_motion": 13.52371588,
        "meta_eccentricity": 0.03049079,
        "meta_inclination": 99.9356,
        "meta_ra_of_asc_node": 293.4577,
        "meta_arg_of_pericenter": 112.862,
        "meta_mean_anomaly": 250.5013,
        "meta_ephemeris_type": 0,
        "meta_classification_type": "U",
        "meta_norad_cat_id": 41018,
        "meta_element_set_no": 999,
        "meta_rev_at_epoch": 88206,
        "meta_bstar": 0.0022149287,
        "meta_mean_motion_dot": 1.917e-05,
        "meta_mean_motion_ddot": 0,
        "tle_line1": "1 41018U 99025EXY 25349.06290650  .00001917  00000+0  22149-2 0  9997",
        "tle_line2": "2 41018  99.9356 293.4577 0304907 112.8620 250.5013 13.52371588882060"
      },
      "geometry": {
        "type": "Point",
        "coordinates": [
          -45.9945862731392,
          -58.62467218274728
        ]
      }
    },
    {
      "type": "Feature",
      "properties": {
        "norad_id": 41822,
        "name": "FENGYUN 1C DEB",
        "group": "fengyun-1c-debris",
        "lat": 35.1059777033923,
        "lon": -114.72472513397615,
        "alt_km": 785.6450495925455,
        "timestamp": "2025-12-18T21:31:51.291870+00:00",
        "meta_object_name": "FENGYUN 1C DEB",
        "meta_object_id": "1999-025EXZ",
        "meta_epoch": "2025-12-18T03:59:54.301344",
        "meta_mean_motion": 14.24836284,
        "meta_eccentricity": 0.005572,
        "meta_inclination": 98.7322,
        "meta_ra_of_asc_node": 58.3463,
        "meta_arg_of_pericenter": 205.1153,
        "meta_mean_anomaly": 154.7314,
        "meta_ephemeris_type": 0,
        "meta_classification_type": "U",
        "meta_norad_cat_id": 41822,
        "meta_element_set_no": 999,
        "meta_rev_at_epoch": 47450,
        "meta_bstar": 0.0012604498,
        "meta_mean_motion_dot": 2.945e-05,
        "meta_mean_motion_ddot": 0,
        "tle_line1": "1 41822U 99025EXZ 25352.16660071  .00002945  00000+0  12604-2 0  9990",
        "tle_line2": "2 41822  98.7322  58.3463 0055720 205.1153 154.7314 14.24836284474502"
      },
      "geometry": {
        "type": "Point",
        "coordinates": [
          -114.72472513397615,
          35.1059777033923
        ]
      }
    }
  ]
}